{"type": "FeatureCollection", "features": [ {"type": "Feature", "properties": {"norad_id": 34637, "name": "COSMOS 2251 DEB", "group": "cosmos-2251-debris", "lat": -6.900195401191253, "lon": 74.86754869582666, "alt_km": 726.1893275912071, "timestamp": "2025-12-25T11:37:44.834294+00:00", "meta": {"OBJECT_NAME": "COSMOS 2251 DEB", "OBJECT_ID": "1993-036XJ", "EPOCH": "2025-12-24T16:37:42.451680", "MEAN_MOTION": 14.60194617, "ECCENTRICITY": 0.00488497, "INCLINATION": 74.0492, "RA_OF_ASC_NODE": 78.3604, "ARG_OF_PERICENTER": 145.6397, "MEAN_ANOMALY": 7.5755, "EPHEMERIS_TYPE": 0, "CLASSIFICATION_TYPE": "U", "NORAD_CAT_ID": 34637, "ELEMENT_SET_NO": 999, "REV_AT_EPOCH": 88701, "BSTAR": 0.00083895916, "MEAN_MOTION_DOT": 4.084e-05, "MEAN_MOTION_DDOT": 0}, "tle": {"line1": "1 34637U 93036XJ  25358.69285245  .00004084  00000+0  83896-3 0  9990", "line2": "2 34637  74.0492  78.3604 0048849 145.6397   7.5755 14.60194617887019"}}, "geometry": {"type": "Point", "coordinates": [74.86754869582666, -6.900195401191253]}}, {"type": "Feature", "properties": {"norad_id": 34641, "name": "COSMOS 2251 DEB", "group": "cosmos-2251-debris", "lat": -25.97050465370717, "lon": 49.223470987082976, "alt_km": 710.6230491691913, "timestamp": "2025-12-25T11:37:44.834304+00:00", "meta": {"OBJECT_NAME": "COSMOS 2251 DEB", "OBJECT_ID": "1993-036XN", "EPOCH": "2025-12-25T03:37:10.771968", "MEAN_MOTION": 14.52080579, "ECCENTRICITY": 0.0019094, "INCLINATION": 73.836, "RA_OF_ASC_NODE": 57.9813, "ARG_OF_PERICENTER": 330.5665, "MEAN_ANOMALY": 58.546, "EPHEMERIS_TYPE": 0, "CLASSIFICATION_TYPE": "U", "NORAD_CAT_ID": 34641, "ELEMENT_SET_NO": 999, "REV_AT_EPOCH": 88436, "BSTAR": 0.00073841, "MEAN_MOTION_DOT": 2.967e-05, "MEAN_MOTION_DDOT": 0}, "tle": {"line1": "1 34641U 93036XN  25359.15081912  .00002967  00000+0  73841-3 0  9999", "line2": "2 34641  73.8360  57.9813 0019094 330.5665  58.5460 14.52080579884369"}}, "geometry": {"type": "Point", "coordinates": [49.223470987082976, -25.97050465370717]}}, {"type": "Feature", "properties": {"norad_id": 34642, "name": "COSMOS 2251 DEB", "group": "cosmos-2251-debris", "lat": 33.17878866072147, "lon": 126.91546657303405, "alt_km": 747.044890988278, "timestamp": "2025-12-25T11:37:44.834315+00:00", "meta": {"OBJECT_NAME": "COSMOS 2251 DEB", "OBJECT_ID": "1993-036XP", "EPOCH": "2025-12-24T08:05:16.562400", "MEAN_MOTION": 13.99004253, "ECCENTRICITY": 0.0206477, "INCLINATION": 74.0043, "RA_OF_ASC_NODE": 319.7125, "ARG_OF_PERICENTER": 136.7937, "MEAN_ANOMALY": 350.6828, "EPHEMERIS_TYPE": 0, "CLASSIFICATION_TYPE": "U", "NORAD_CAT_ID": 34642, "ELEMENT_SET_NO": 999, "REV_AT_EPOCH": 85455, "BSTAR": 0.00081021111, "MEAN_MOTION_DOT": 1.383e-05, "MEAN_MOTION_DDOT": 0}, "tle": {"line1": "1 34642U 93036XP  25358.33699725  .00001383  00000+0  81021-3 0  9996", "line2": "2 34642  74.0043 319.7125 0206477 136.7937 350.6828 13.99004253854554"}}, "geometry": {"type": "Point", "coordinates": [126.91546657303405, 33.17878866072147]}}, {"type": "Feature", "properties": {"norad_id": 34671, "name": "COSMOS 2251 DEB", "group": "cosmos-2251-debris", "lat": 41.765319286368964, "lon": 124.50952302185223, "alt_km": 672.7002444423524, "timestamp": "2025-12-25T11:37:44.834326+00:00", "meta": {"OBJECT_NAME": "COSMOS 2251 DEB", "OBJECT_ID": "1993-036XR", "EPOCH": "2025-12-24T07:45:05.041728", "MEAN_MOTION": 14.67129194, "ECCENTRICITY": 0.00105725, "INCLINATION": 74.0275, "RA_OF_ASC_NODE": 111.9321, "ARG_OF_PERICENTER": 193.4023, "MEAN_ANOMALY": 198.0562, "EPHEMERIS_TYPE": 0, "CLASSIFICATION_TYPE": "U", "NORAD_CAT_ID": 34671, "ELEMENT_SET_NO": 999, "REV_AT_EPOCH": 88467, "BSTAR": 0.0017522099, "MEAN_MOTION_DOT": 9.84e-05, "MEAN_MOTION_DDOT": 0}, "tle": {"line1": "1 34671U 93036XR  25358.32297502  .00009840  00000+0  17522-2 0  9994", "line2": "2 34671  74.0275 111.9321 0010572 193.4023 198.0562 14.67129194884671"}}, "geometry": {"type": "Point", "coordinates": [124.50952302185223, 41.765319286368964]}}, {"type": "Feature", "properties": {"norad_id": 34672, "name": "COSMOS 2251 DEB", "group": "cosmos-2251-debris", "lat": -70.89157602046596, "lon": 157.89985119692918, "alt_km": 777.8310813468752, "timestamp": "2025-12-25T11:37:44.834336+00:00", "meta": {"OBJECT_NAME": "COSMOS 2251 DEB", "OBJECT_ID": "1993-036XS", "EPOCH": "2025-12-23T01:39:52.431840", "MEAN_MOTION": 14.36424251, "ECCENTRICITY": 0.00243004, "INCLINATION": 74.0343, "RA_OF_ASC_NODE": 286.6106, "ARG_OF_PERICENTER": 356.389, "MEAN_ANOMALY": 18.9966, "EPHEMERIS_TYPE": 0, "CLASSIFICATION_TYPE": "U", "NORAD_CAT_ID": 34672, "ELEMENT_SET_NO": 999, "REV_AT_EPOCH": 65326, "BSTAR": 0.00025150328, "MEAN_MOTION_DOT": 7.13e-06, "MEAN_MOTION_DDOT": 0}, "tle": {"line1": "1 34672U 93036XS  25357.06935685  .00000713  00000+0  25150-3 0  9993", "line2": "2 34672  74.0343 286.6106 0024300 356.3890  18.9966 14.36424251653260"}}, "geometry": {"type": "Point", "coordinates": [157.89985119692918, -70.89157602046596]}}, {"type": "Feature", "properties": {"norad_id": 34678, "name": "COSMOS 2251 DEB", "group": "cosmos-2251-debris", "lat": 27.108742943886764, "lon": 154.09637694430324, "alt_km": 799.9383739157911, "timestamp": "2025-12-25T11:37:44.834347+00:00", "meta": {"OBJECT_NAME": "COSMOS 2251 DEB", "OBJECT_ID": "1993-036XY", "EPOCH": "2025-12-24T23:16:13.617120", "MEAN_MOTION": 14.30067147, "ECCENTRICITY": 0.00248, "INCLINATION": 74.0378, "RA_OF_ASC_NODE": 343.4574, "ARG_OF_PERICENTER": 28.8274, "MEAN_ANOMALY": 352.5479, "EPHEMERIS_TYPE": 0, "CLASSIFICATION_TYPE": "U", "NORAD_CAT_ID": 34678, "ELEMENT_SET_NO": 999, "REV_AT_EPOCH": 87554, "BSTAR": 3.7326e-05, "MEAN_MOTION_DOT": 7.1e-07, "MEAN_MOTION_DDOT": 0}, "tle": {"line1": "1 34678U 93036XY  25358.96960205  .00000071  00000+0  37326-4 0  9991", "line2": "2 34678  74.0378 343.4574 0024800  28.8274 352.5479 14.30067147875541"}}, "geometry": {"type": "Point", "coordinates": [154.09637694430324, 27.108742943886764]}}, {"type": "Feature", "properties": {"norad_id": 34680, "name": "COSMOS 2251 DEB", "group": "cosmos-2251-debris", "lat": 35.280517685358596, "lon": 117.2032364792422, "alt_km": 692.4301403103163, "timestamp": "2025-12-25T11:37:44.834357+00:00", "meta": {"OBJECT_NAME": "COSMOS 2251 DEB", "OBJECT_ID": "1993-036YA", "EPOCH": "2025-12-23T15:21:33.153120", "MEAN_MOTION": 14.60731514, "ECCENTRICITY": 0.00063275, "INCLINATION": 74.0441, "RA_OF_ASC_NODE": 109.0451, "ARG_OF_PERICENTER": 210.5791, "MEAN_ANOMALY": 210.4022, "EPHEMERIS_TYPE": 0, "CLASSIFICATION_TYPE": "U", "NORAD_CAT_ID": 34680, "ELEMENT_SET_NO": 999, "REV_AT_EPOCH": 88487, "BSTAR": 0.0011410093, "MEAN_MOTION_DOT": 5.54e-05, "MEAN_MOTION_DDOT": 0}, "tle": {"line1": "1 34680U 93036YA  25357.63996705  .00005540  00000+0  11410-2 0  9991", "line2": "2 34680  74.0441 109.0451 0006327 210.5791 210.4022 14.60731514884874"}}, "geometry": {"type": "Point", "coordinates": [117.2032364792422, 35.280517685358596]}}, {"type": "Feature", "properties": {"norad_id": 34681, "name": "COSMOS 2251 DEB", "group": "cosmos-2251-debris", "lat": -42.30961709992716, "lon": 100.2780815981877, "alt_km": 626.4016804114863, "timestamp": "2025-12-25T11:37:44.834367+00:00", "meta": {"OBJECT_NAME": "COSMOS 2251 DEB", "OBJECT_ID": "1993-036YB", "EPOCH": "2025-12-25T04:41:29.056416", "MEAN_MOTION": 14.83490223, "ECCENTRICITY": 0.0025671, "INCLINATION": 74.0618, "RA_OF_ASC_NODE": 265.7723, "ARG_OF_PERICENTER": 320.9215, "MEAN_ANOMALY": 160.5558, "EPHEMERIS_TYPE": 0, "CLASSIFICATION_TYPE": "U", "NORAD_CAT_ID": 34681, "ELEMENT_SET_NO": 999, "REV_AT_EPOCH": 89455, "BSTAR": 0.001373, "MEAN_MOTION_DOT": 0.00011341, "MEAN_MOTION_DDOT": 0}, "tle": {"line1": "1 34681U 93036YB  25359.19547519  .00011341  00000+0  13730-2 0  9993", "line2": "2 34681  74.0618 265.7723 0025671 320.9215 160.5558 14.83490223894552"}}, "geometry": {"type": "Point", "coordinates": [100.2780815981877, -42.30961709992716]}}, {"type": "Feature", "properties": {"norad_id": 34682, "name": "COSMOS 2251 DEB", "group": "cosmos-2251-debris", "lat": -56.852756193460884, "lon": 32.724081042655556, "alt_km": 707.2850443009629, "timestamp": "2025-12-25T11:37:44.834377+00:00", "meta": {"OBJECT_NAME": "COSMOS 2251 DEB", "OBJECT_ID": "1993-036YC", "EPOCH": "2025-12-25T03:48:58.538304", "MEAN_MOTION": 14.58977229, "ECCENTRICITY": 0.0017657, "INCLINATION": 74.0393, "RA_OF_ASC_NODE": 59.3347, "ARG_OF_PERICENTER": 191.0095, "MEAN_ANOMALY": 199.1838, "EPHEMERIS_TYPE": 0, "CLASSIFICATION_TYPE": "U", "NORAD_CAT_ID": 34682, "ELEMENT_SET_NO": 999, "REV_AT_EPOCH": 88867, "BSTAR": 0.00073784, "MEAN_MOTION_DOT": 3.442e-05, "MEAN_MOTION_DDOT": 0}, "tle": {"line1": "1 34682U 93036YC  25359.15901086  .00003442  00000+0  73784-3 0  9992", "line2": "2 34682  74.0393  59.3347 0017657 191.0095 199.1838 14.58977229888673"}}, "geometry": {"type": "Point", "coordinates": [32.724081042655556, -56.852756193460884]}}, {"type": "Feature", "properties": {"norad_id": 34683, "name": "COSMOS 2251 DEB", "group": "cosmos-2251-debris", "lat": -9.827765881116001, "lon": 64.91700641589556, "alt_km": 694.0132981652514, "timestamp": "2025-12-25T11:37:44.834387+00:00", "meta": {"OBJECT_NAME": "COSMOS 2251 DEB", "OBJECT_ID": "1993-036YD", "EPOCH": "2025-12-24T16:44:03.936192", "MEAN_MOTION": 14.64633572, "ECCENTRICITY": 0.00173569, "INCLINATION": 74.0289, "RA_OF_ASC_NODE": 69.2741, "ARG_OF_PERICENTER": 183.9932, "MEAN_ANOMALY": 336.4823, "EPHEMERIS_TYPE": 0, "CLASSIFICATION_TYPE": "U", "NORAD_CAT_ID": 34683, "ELEMENT_SET_NO": 999, "REV_AT_EPOCH": 88523, "BSTAR": 0.0011998221, "MEAN_MOTION_DOT": 6.366e-05, "MEAN_MOTION_DDOT": 0}, "tle": {"line1": "1 34683U 93036YD  25358.69726778  .00006366  00000+0  11998-2 0  9990", "line2": "2 34683  74.0289  69.2741 0017356 183.9932 336.4823 14.64633572885238"}}, "geometry": {"type": "Point", "coordinates": [64.91700641589556, -9.827765881116001]}}]}